[{"OBJECT_NAME":"CONNECTA IOT-14","OBJECT_ID":"2026-004AQ","EPOCH":"2026-03-09T22:44:46.185792","MEAN_MOTION":15.17901608,"ECCENTRICITY":0.00089335,"INCLINATION":97.4512,"RA_OF_ASC_NODE":69.4576,"ARG_OF_PERICENTER":336.151,"MEAN_ANOMALY":23.9308,"EPHEMERIS_TYPE":0,"CLASSIFICATION_TYPE":"U","NORAD_CAT_ID":67401,"ELEMENT_SET_NO":999,"REV_AT_EPOCH":870,"BSTAR":0.00024848153,"MEAN_MOTION_DOT":4.975e-5,"MEAN_MOTION_DDOT":0},{"OBJECT_NAME":"SL-24 DEB","OBJECT_ID":"2008-040G","EPOCH":"2026-03-09T18:31:01.084512","MEAN_MOTION":15.22675803,"ECCENTRICITY":0.00142718,"INCLINATION":97.9814,"RA_OF_ASC_NODE":3.5579,"ARG_OF_PERICENTER":81.931,"MEAN_ANOMALY":278.3543,"EPHEMERIS_TYPE":0,"CLASSIFICATION_TYPE":"U","NORAD_CAT_ID":33318,"ELEMENT_SET_NO":999,"REV_AT_EPOCH":95458,"BSTAR":0.0007155905,"MEAN_MOTION_DOT":0.00016658,"MEAN_MOTION_DDOT":0}]
